H1 CPF 01  gfz 2022 06 18 00  6691 tandemx   
H2 1003001  6202 36605    2022 06 18 00 59 42 2022 06 23 00 00 42   120 1 1  0 0 0
H9
10 0 59750  29502.000000  0   -1839700.579   2147432.933   6270598.281
10 0 59750  29622.000000  0   -1077601.499   1726510.448   6570048.028
10 0 59750  29742.000000  0    -304444.660   1262022.134   6754022.496
10 0 59750  29862.000000  0     465584.724    762008.471   6819309.951
10 0 59750  29982.000000  0    1218508.147    235371.649   6764770.683
10 0 59750  30102.000000  0    1940806.335   -308282.237   6591355.620
10 0 59750  30222.000000  0    2619661.201   -858817.832   6302091.611
10 0 59750  30342.000000  0    3243183.935  -1405758.620   5902032.610
10 0 59750  30462.000000  0    3800626.466  -1938485.845   5398177.032
10 0 59750  30582.000000  0    4282570.818  -2446444.869   4799350.352
10 0 59750  30702.000000  0    4681093.524  -2919355.096   4116056.730
10 0 59750  30822.000000  0    4989903.164  -3347420.720   3360299.532
10 0 59750  30942.000000  0    5204447.016  -3721536.002   2545371.361
10 0 59750  31062.000000  0    5321982.352  -4033480.036   1685617.853
10 0 59750  31182.000000  0    5341611.216  -4276097.489    796181.106
10 0 59750  31302.000000  0    5264278.642  -4443459.691   -107273.677
10 0 59750  31422.000000  0    5092733.524  -4531002.633  -1008842.369
10 0 59750  31542.000000  0    4831452.519  -4535637.078  -1892671.122
10 0 59750  31662.000000  0    4486529.275  -4455828.537  -2743243.236
10 0 59750  31782.000000  0    4065532.296  -4291645.281  -3545657.112
10 0 59750  31902.000000  0    3577335.659  -4044773.698  -4285889.986
10 0 59750  32022.000000  0    3031927.115  -3718500.861  -4951041.608
10 0 59750  32142.000000  0    2440198.396  -3317666.022  -5529553.651
10 0 59750  32262.000000  0    1813724.307  -2848582.888  -6011400.719
10 0 59750  32382.000000  0    1164535.873  -2318936.110  -6388253.700
10 0 59750  32502.000000  0     504889.426  -1737651.735  -6653614.252
10 0 59750  32622.000000  0    -152962.645  -1114744.206  -6802915.940
10 0 59750  32742.000000  0    -796994.689   -461144.640  -6833593.225
10 0 59750  32862.000000  0   -1415621.852    211487.262  -6745120.243
10 0 59750  32982.000000  0   -1997903.787    890965.936  -6539018.244
10 0 59750  33102.000000  0   -2533733.468   1564794.974  -6218832.215
10 0 59750  33222.000000  0   -3014009.442   2220391.149  -5790076.728
10 0 59750  33342.000000  0   -3430790.332   2845315.307  -5260151.838
10 0 59750  33462.000000  0   -3777429.371   3427507.248  -4638227.454
10 0 59750  33582.000000  0   -4048685.731   3955519.474  -3935095.095
10 0 59750  33702.000000  0   -4240808.283   4418744.922  -3162989.497
10 0 59750  33822.000000  0   -4351591.244   4807634.645  -2335383.564
10 0 59750  33942.000000  0   -4380401.181   5113899.654  -1466757.376
10 0 59750  34062.000000  0   -4328173.464   5330692.978   -572345.515
10 0 59750  34182.000000  0   -4197376.323   5452766.416    332135.200
10 0 59750  34302.000000  0   -3991942.931   5476595.175   1230768.318
10 0 59750  34422.000000  0   -3717174.344   5400470.509   2107727.373
10 0 59750  34542.000000  0   -3379613.677   5224553.454   2947565.229
10 0 59750  34662.000000  0   -2986894.333   4950890.121   3735493.885
10 0 59750  34782.000000  0   -2547569.182   4583389.762   4457649.584
10 0 59750  34902.000000  0   -2070923.864   4127765.609   5101339.759
10 0 59750  35022.000000  0   -1566779.252   3591439.675   5655266.314
10 0 59750  35142.000000  0   -1045287.026   2983414.279   6109721.053
10 0 59750  35262.000000  0    -516724.075   2314113.656   6456750.156
10 0 59750  35382.000000  0       8709.492   1595200.412   6690286.503
10 0 59750  35502.000000  0     521086.640    839369.379   6806250.832
10 0 59750  35622.000000  0    1010940.387     60122.004   6802617.656
10 0 59750  35742.000000  0    1469437.589   -728473.755   6679448.744
10 0 59750  35862.000000  0    1888537.785  -1512037.109   6438892.858
10 0 59750  35982.000000  0    2261134.449  -2276135.862   6085150.899
10 0 59750  36102.000000  0    2581176.990  -3006553.148   5624407.873
10 0 59750  36222.000000  0    2843771.120  -3689554.245   5064730.045
10 0 59750  36342.000000  0    3045255.148  -4312148.347   4415929.361
10 0 59750  36462.000000  0    3183252.349  -4862341.702   3689396.613
10 0 59750  36582.000000  0    3256696.716  -5329375.476   2897903.359
10 0 59750  36702.000000  0    3265831.965  -5703943.547   2055377.382
10 0 59750  36822.000000  0    3212182.421  -5978384.503   1176654.134
10 0 59750  36942.000000  0    3098497.599  -6146841.975    277210.118
10 0 59750  37062.000000  0    2928672.373  -6205391.292   -627116.105
10 0 59750  37182.000000  0    2707642.623  -6152128.628  -1520413.098
10 0 59750  37302.000000  0    2441259.030  -5987216.459  -2386985.090
10 0 59750  37422.000000  0    2136144.503  -5712889.424  -3211634.468
10 0 59750  37542.000000  0    1799536.090  -5333418.034  -3979933.940
10 0 59750  37662.000000  0    1439117.808  -4855030.326  -4678478.638
10 0 59750  37782.000000  0    1062850.065  -4285797.621  -5295115.312
10 0 59750  37902.000000  0     678798.096  -3635487.995  -5819146.481
10 0 59750  38022.000000  0     294963.055  -2915389.674  -6241506.268
10 0 59750  38142.000000  0     -80880.551  -2138109.203  -6554905.658
10 0 59750  38262.000000  0    -441337.911  -1317348.483  -6753947.030
10 0 59750  38382.000000  0    -779534.613   -467664.514  -6835207.863
10 0 59750  38502.000000  0   -1089243.406    395785.130  -6797292.843
10 0 59750  38622.000000  0   -1364995.905   1257505.907  -6640854.147
10 0 59750  38742.000000  0   -1602176.832   2101937.240  -6368581.334
10 0 59750  38862.000000  0   -1797099.798   2913726.257  -5985160.682
10 0 59750  38982.000000  0   -1947064.779   3678003.259  -5497204.198
10 0 59750  39102.000000  0   -2050394.958   4380652.869  -4913146.397
10 0 59750  39222.000000  0   -2106453.462   5008577.889  -4243110.307
10 0 59750  39342.000000  0   -2115638.543   5549949.556  -3498741.394
10 0 59750  39462.000000  0   -2079356.589   5994437.994  -2693013.060
10 0 59750  39582.000000  0   -1999973.631   6333419.651  -1840006.644
10 0 59750  39702.000000  0   -1880746.840   6560155.948   -954666.466
10 0 59750  39822.000000  0   -1725736.459   6669936.585    -52536.543
10 0 59750  39942.000000  0   -1539700.252   6660187.099    850516.673
10 0 59750  40062.000000  0   -1327972.783   6530533.598   1738594.253
10 0 59750  40182.000000  0   -1096331.874   6282818.607   2596055.393
10 0 59750  40302.000000  0    -850856.814   5921072.953   3407800.140
10 0 59750  40422.000000  0    -597782.285   5451445.614   4159540.781
10 0 59750  40542.000000  0    -343351.777   4882092.818   4838058.718
10 0 59750  40662.000000  0     -93671.950   4223023.659   5431439.234
10 0 59750  40782.000000  0     145426.492   3485914.995   5929275.820
10 0 59750  40902.000000  0     368517.803   2683896.714   6322850.039
10 0 59750  41022.000000  0     570698.721   1831310.519   6605277.996
10 0 59750  41142.000000  0     747692.005    943449.205   6771625.001
10 0 59750  41262.000000  0     895933.874     36280.027   6818985.838
10 0 59750  41382.000000  0    1012644.192   -873841.293   6746532.489
10 0 59750  41502.000000  0    1095878.184  -1770465.227   6555528.802
10 0 59750  41622.000000  0    1144558.961  -2637345.442   6249310.160
10 0 59750  41742.000000  0    1158490.304  -3458734.637   5833229.152
10 0 59750  41862.000000  0    1138348.701  -4219673.073   5314565.663
10 0 59750  41982.000000  0    1085656.896  -4906263.543   4702404.865
10 0 59750  42102.000000  0    1002738.348  -5505931.420   4007485.108
10 0 59750  42222.000000  0     892653.091  -6007665.116   3242013.808
10 0 59750  42342.000000  0     759116.497  -6402228.379   2419453.535
10 0 59750  42462.000000  0     606401.680  -6682339.674   1554283.769
10 0 59750  42582.000000  0     439228.713  -6842815.003    661742.412
10 0 59750  42702.000000  0     262643.259  -6880671.919   -242449.799
10 0 59750  42822.000000  0      81886.646  -6795186.734  -1142377.139
10 0 59750  42942.000000  0     -97737.233  -6587904.290  -2022218.304
10 0 59750  43062.000000  0    -270995.292  -6262603.269  -2866531.198
10 0 59750  43182.000000  0    -432855.976  -5825218.372  -3660528.936
10 0 59750  43302.000000  0    -578614.254  -5283720.219  -4390341.404
10 0 59750  43422.000000  0    -704007.398  -4647956.366  -5043255.398
10 0 59750  43542.000000  0    -805319.034  -3929460.312  -5607929.775
10 0 59750  43662.000000  0    -879469.177  -3141232.443  -6074583.671
10 0 59750  43782.000000  0    -924088.570  -2297497.980  -6435155.319
10 0 59750  43902.000000  0    -937576.304  -1413446.899  -6683429.650
10 0 59750  44022.000000  0    -919140.095   -504961.653  -6815134.684
10 0 59750  44142.000000  0    -868818.436    411664.267  -6828007.199
10 0 59750  44262.000000  0    -787483.840   1320011.739  -6721826.168
10 0 59750  44382.000000  0    -676828.104   2203822.263  -6498416.102
10 0 59750  44502.000000  0    -539329.722   3047281.543  -6161619.627
10 0 59750  44622.000000  0    -378202.963   3835298.420  -5717239.916
10 0 59750  44742.000000  0    -197329.457   4553773.953  -5172950.372
10 0 59750  44862.000000  0      -1173.823   5189855.806  -4538173.828
10 0 59750  44982.000000  0     205315.388   5732175.236  -3823930.515
10 0 59750  45102.000000  0     416818.143   6171060.007  -3042655.583
10 0 59750  45222.000000  0     627766.426   6498718.541  -2207989.233
10 0 59750  45342.000000  0     832476.269   6709391.477  -1334541.561
10 0 59750  45462.000000  0    1025285.272   6799465.222   -437635.523
10 0 59750  45582.000000  0    1200692.274   6767543.929    466966.767
10 0 59750  45702.000000  0    1353495.408   6614476.387   1363348.600
10 0 59750  45822.000000  0    1478923.959   6343338.062   2235726.515
10 0 59750  45942.000000  0    1572761.558   5959369.607   3068736.293
99
